NORAD_CAT_ID,OBJECT_NAME,OBJECT_TYPE,EPOCH,MEAN_MOTION,ECCENTRICITY,INCLINATION,RA_OF_ASC_NODE,ARG_OF_PERICENTER,MEAN_ANOMALY,BSTAR,MEAN_MOTION_DOT,MEAN_MOTION_DDOT,TLE_LINE0,TLE_LINE1,TLE_LINE2,SEMIMAJOR_AXIS,PERIOD,APOGEE,PERIGEE,DECAYED
50841.0,STARLINK-3300,PAYLOAD,2022-08-29 14:04:18,15.08837539,0.0002358,53.2178,201.6408,54.2969,305.8242,2.0214e-05,3.3e-07,0.0,0 STARLINK-3300,1 50841U 22001AQ  22241.58632344  .00000033  00000-0  20214-4 0  9998,2 50841  53.2178 201.6408 0002358  54.2969 305.8242 15.08837539 35809,6917.888000000001,95.438,541.384,538.122,0.0
50841.0,STARLINK-3300,PAYLOAD,2022-08-30 04:22:46,15.08845491,0.0002379999999999,53.2178,198.9642,54.0056,306.1157,1.3865e-05,-6.8e-07,0.0,0 STARLINK-3300,1 50841U 22001AQ  22242.18247820 -.00000068  00000-0  13865-4 0  9999,2 50841  53.2178 198.9642 0002380  54.0056 306.1157 15.08845491 37196,6917.864000000001,95.437,541.375,538.082,0.0
50841.0,STARLINK-3300,PAYLOAD,2022-08-30 07:33:32,15.08845198,0.0002384,53.2178,198.3697,54.4276,305.6938,1.2714e-05,-8.6e-07,0.0,0 STARLINK-3300,1 50841U 22001AQ  22242.31495808 -.00000086  00000-0  12714-4 0  9997,2 50841  53.2178 198.3697 0002384  54.4276 305.6938 15.08845198 35915,6917.865,95.437,541.379,538.08,0.0
50841.0,STARLINK-3300,PAYLOAD,2022-08-31 05:48:57,15.0883206,0.0002394,53.2181,194.2067,55.1577,304.964,4.7765e-06,-2.12e-06,0.0,0 STARLINK-3300,1 50841U 22001AQ  22243.24232642 -.00000212  00000-0  47765-5 0  9991,2 50841  53.2181 194.2067 0002394  55.1577 304.9640 15.08832060 36050,6917.905,95.438,541.4259999999998,538.114,0.0
50841.0,STARLINK-3300,PAYLOAD,2022-09-01 04:04:20,15.08842356,0.0002423999999999,53.2181,190.0436,55.9349,304.1873,2.3833e-05,9.1e-07,0.0,0 STARLINK-3300,1 50841U 22001AQ  22244.16968138  .00000091  00000-0  23833-4 0  9992,2 50841  53.2181 190.0436 0002424  55.9349 304.1873 15.08842356 37491,6917.873000000001,95.437,541.415,538.061,0.0
50841.0,STARLINK-3300,PAYLOAD,2022-09-01 07:15:06,15.08842778,0.0002432,53.2181,189.4489,55.9411,304.1812,2.6762e-05,1.38e-06,0.0,0 STARLINK-3300,1 50841U 22001AQ  22244.30216086  .00000138  00000-0  26762-4 0  9992,2 50841  53.2181 189.4489 0002432  55.9411 304.1812 15.08842778 36210,6917.871999999999,95.437,541.419,538.054,0.0
50841.0,STARLINK-3300,PAYLOAD,2022-09-01 13:36:38,15.0884774,0.0002389,53.2183,188.2595,57.5416,302.5807,7.6658e-05,9.32e-06,0.0,0 STARLINK-3300,1 50841U 22001AQ  22244.56711597  .00000932  00000-0  76658-4 0  9998,2 50841  53.2183 188.2595 0002389  57.5416 302.5807 15.08847740 36255,6917.857,95.437,541.374,538.069,0.0
50841.0,STARLINK-3300,PAYLOAD,2022-09-02 05:30:31,15.08831509,0.0002322,53.218,185.2862,58.7216,301.4003,2.7733e-05,1.53e-06,0.0,0 STARLINK-3300,1 50841U 22001AQ  22245.22952819  .00000153  00000-0  27733-4 0  9991,2 50841  53.2180 185.2862 0002322  58.7216 301.4003 15.08831509 37651,6917.906,95.438,541.378,538.165,0.0
50841.0,STARLINK-3300,PAYLOAD,2022-09-02 13:27:26,15.08836282,0.0002334999999999,53.2182,183.7995,59.0493,301.0728,4.8099e-05,4.77e-06,0.0,0 STARLINK-3300,1 50841U 22001AQ  22245.56072579  .00000477  00000-0  48099-4 0  9991,2 50841  53.2182 183.7995 0002335  59.0493 301.0728 15.08836282 36403,6917.892,95.438,541.372,538.141,0.0
50841.0,STARLINK-3300,PAYLOAD,2022-09-03 05:21:17,15.08843818,0.000236,53.2182,180.8257,58.9546,301.1677,3.5603000000000005e-05,2.78e-06,0.0,0 STARLINK-3300,1 50841U 22001AQ  22246.22312170  .00000278  00000-0  35603-4 0  9995,2 50841  53.2182 180.8257 0002360  58.9546 301.1677 15.08843818 36505,6917.869000000002,95.437,541.366,538.101,0.0
50841.0,STARLINK-3300,PAYLOAD,2022-09-03 19:39:46,15.08834362,0.000245,53.2184,178.15,57.0268,303.096,4.1916e-05,3.79e-06,0.0,0 STARLINK-3300,1 50841U 22001AQ  22246.81928891  .00000379  00000-0  41916-4 0  9999,2 50841  53.2184 178.1500 0002450  57.0268 303.0960 15.08834362 37892,6917.898,95.438,541.4580000000002,538.068,0.0
50841.0,STARLINK-3300,PAYLOAD,2022-09-04 05:12:04,15.08840141,0.0002423999999999,53.2181,176.3658,57.731,302.3917,9.1909e-05,1.175e-05,0.0,0 STARLINK-3300,1 50841U 22001AQ  22247.21672433  .00001175  00000-0  91909-4 0  9994,2 50841  53.2181 176.3658 0002424  57.7310 302.3917 15.08840141 36658,6917.88,95.438,541.422,538.068,0.0
50841.0,STARLINK-3300,PAYLOAD,2022-09-05 05:02:51,15.08850671,0.0002307,53.2167,171.9056,59.8233,300.2988,0.00013792,1.908e-05,0.0,0 STARLINK-3300,1 50841U 22001AQ  22248.21031751  .00001908  00000-0  13792-3 0  9994,2 50841  53.2167 171.9056 0002307  59.8233 300.2988 15.08850671 36803,6917.848000000001,95.437,541.309,538.117,0.0
50841.0,STARLINK-3300,PAYLOAD,2022-09-05 19:21:19,15.08848618,0.0002298,53.2168,169.2295,61.2083,298.914,0.00010089,1.318e-05,0.0,0 STARLINK-3300,1 50841U 22001AQ  22248.80647526  .00001318  00000-0  10089-3 0  9993,2 50841  53.2168 169.2295 0002298  61.2083 298.9140 15.08848618 36898,6917.854,95.437,541.309,538.129,0.0
50841.0,STARLINK-3300,PAYLOAD,2022-09-06 03:18:15,15.08834333,0.0002285,53.2174,167.7417,58.3142,301.8073,-0.00018798,-3.278e-05,0.0,0 STARLINK-3300,1 50841U 22001AQ  22249.13767877 -.00003278  00000-0 -18798-3 0  9996,2 50841  53.2174 167.7417 0002285  58.3142 301.8073 15.08834333 38242,6917.898,95.438,541.3430000000002,538.182,0.0
50841.0,STARLINK-3300,PAYLOAD,2022-09-06 23:58:17,15.08823465,0.0002084,53.2176,163.8768,59.9259,300.1939,-0.00022077,-3.799e-05,0.0,0 STARLINK-3300,1 50841U 22001AQ  22249.99881129 -.00003799  00000-0 -22077-3 0  9990,2 50841  53.2176 163.8768 0002084  59.9259 300.1939 15.08823465 38374,6917.931,95.439,541.238,538.354,0.0
50841.0,STARLINK-3300,PAYLOAD,2022-09-07 04:44:26,15.08821999,0.0002099,53.217,162.985,58.1871,301.9325,-0.00019532,-3.394e-05,0.0,0 STARLINK-3300,1 50841U 22001AQ  22250.19753422 -.00003394  00000-0 -19532-3 0  9991,2 50841  53.2170 162.9850 0002099  58.1871 301.9325 15.08821999 37105,6917.935,95.439,541.252,538.3480000000002,0.0
50841.0,STARLINK-3300,PAYLOAD,2022-09-08 02:59:51,15.0883269,0.0001981,53.2178,158.8218,56.684,303.4341,0.00012057,1.631e-05,0.0,0 STARLINK-3300,1 50841U 22001AQ  22251.12489789  .00001631  00000-0  12057-3 0  9992,2 50841  53.2178 158.8218 0001981  56.6840 303.4341 15.08832690 37243,6917.903,95.438,541.138,538.3969999999998,0.0
50841.0,STARLINK-3300,PAYLOAD,2022-09-08 18:53:42,15.088424300000002,0.0001968,53.2176,155.8486,55.4867,304.6311,0.00039208,5.958e-05,0.0,0 STARLINK-3300,1 50841U 22001AQ  22251.78729779  .00005958  00000-0  39208-3 0  9993,2 50841  53.2176 155.8486 0001968  55.4867 304.6311 15.08842430 37340,6917.873000000001,95.437,541.099,538.377,0.0
50841.0,STARLINK-3300,PAYLOAD,2022-09-09 02:50:37,15.08858845,0.0001991,53.2173,154.3617,55.5149,304.6031,0.0006245,9.67e-05,0.0,0 STARLINK-3300,1 50841U 22001AQ  22252.11849285  .00009670  00000-0  62450-3 0  9996,2 50841  53.2173 154.3617 0001991  55.5149 304.6031 15.08858845 38692,6917.823,95.436,541.065,538.31,0.0
50841.0,STARLINK-3300,PAYLOAD,2022-09-09 10:47:33,15.08858013,0.0001979,53.2168,152.8749,56.7203,303.3979,0.00038119,5.787e-05,0.0,0 STARLINK-3300,1 50841U 22001AQ  22252.44969125  .00005787  00000-0  38119-3 0  9998,2 50841  53.2168 152.8749 0001979  56.7203 303.3979 15.08858013 37441,6917.825,95.436,541.059,538.321,0.0
50841.0,STARLINK-3300,PAYLOAD,2022-09-09 17:09:05,15.08855398,0.0002475,53.2146,151.686,61.3825,298.7415,0.00026112,3.872e-05,0.0,0 STARLINK-3300,1 50841U 22001AQ  22252.71465209  .00003872  00000-0  26112-3 0  9995,2 50841  53.2146 151.6860 0002475  61.3825 298.7415 15.08855398 37481,6917.833000000001,95.437,541.41,537.986,0.0
50841.0,STARLINK-3300,PAYLOAD,2022-09-10 02:41:24,15.08844468,0.0001926,53.2174,149.901,60.0665,300.0519,6.7009e-05,7.79e-06,0.0,0 STARLINK-3300,1 50841U 22001AQ  22253.11209394  .00000779  00000-0  67009-4 0  9995,2 50841  53.2174 149.9010 0001926  60.0665 300.0519 15.08844468 38846,6917.8669999999975,95.437,541.064,538.399,0.0
50841.0,STARLINK-3300,PAYLOAD,2022-09-10 12:13:43,15.08850186,0.0001811999999999,53.2167,148.1168,58.4945,301.6224,0.00011704,1.576e-05,0.0,0 STARLINK-3300,1 50841U 22001AQ  22253.50952916  .00001576  00000-0  11704-3 0  9999,2 50841  53.2167 148.1168 0001812  58.4945 301.6224 15.08850186 37606,6917.849,95.437,540.9680000000002,538.461,0.0
50841.0,STARLINK-3300,PAYLOAD,2022-09-10 18:35:15,15.08847769,0.0001813,53.2166,146.9274,59.0675,301.0495,3.0841e-05,2.03e-06,0.0,0 STARLINK-3300,1 50841U 22001AQ  22253.77448899  .00000203  00000-0  30841-4 0  9998,2 50841  53.2166 146.9274 0001813  59.0675 301.0495 15.08847769 37648,6917.857,95.437,540.976,538.467,0.0
50841.0,STARLINK-3300,PAYLOAD,2022-09-11 02:32:11,15.08849887,0.0001763,53.2168,145.4408,59.1564,300.9601,0.00012357,1.6800000000000002e-05,0.0,0 STARLINK-3300,1 50841U 22001AQ  22254.10568708  .00001680  00000-0  12357-3 0  9999,2 50841  53.2168 145.4408 0001763  59.1564 300.9601 15.08849887 37690,6917.85,95.437,540.935,538.496,0.0
50841.0,STARLINK-3300,PAYLOAD,2022-09-11 20:01:26,15.08842331,0.0001926,53.2172,142.1697,56.8046,303.313,0.00011955,1.615e-05,0.0,0 STARLINK-3300,1 50841U 22001AQ  22254.83432983  .00001615  00000-0  11955-3 0  9995,2 50841  53.2172 142.1697 0001926  56.8046 303.3130 15.08842331 39108,6917.873000000001,95.437,541.071,538.406,0.0
50841.0,STARLINK-3300,PAYLOAD,2022-09-11 21:36:49,15.08845079,0.000181,53.2181,141.8731,64.9209,295.1971,0.00015163,2.126e-05,0.0,0 STARLINK-3300,1 50841U 22001AQ  22254.90056805  .00002126  00000-0  15163-3 0  9991,2 50841  53.2181 141.8731 0001810  64.9209 295.1971 15.08845079 37815,6917.865,95.437,540.982,538.4780000000002,0.0
50841.0,STARLINK-3300,PAYLOAD,2022-09-12 02:22:58,15.088428899999998,0.0001875999999999,53.2175,140.9814,55.3886,304.7283,9.3265e-05,1.197e-05,0.0,0 STARLINK-3300,1 50841U 22001AQ  22255.09928982  .00001197  00000-0  93265-4 0  9993,2 50841  53.2175 140.9814 0001876  55.3886 304.7283 15.08842890 37841,6917.871999999999,95.437,541.034,538.439,0.0
